FENGYUN 1C DEB          
1 38794U 99025EUJ 17344.24364003  .00000368  00000-0  37720-3 0  9996
2 38794  99.0338 145.8537 0218170 141.1976 220.5069 13.72259757358947
